NORAD_CAT_ID,OBJECT_NAME,OBJECT_TYPE,EPOCH,MEAN_MOTION,ECCENTRICITY,INCLINATION,RA_OF_ASC_NODE,ARG_OF_PERICENTER,MEAN_ANOMALY,BSTAR,MEAN_MOTION_DOT,MEAN_MOTION_DDOT,TLE_LINE0,TLE_LINE1,TLE_LINE2,SEMIMAJOR_AXIS,PERIOD,APOGEE,PERIGEE,DECAYED
50204.0,STARLINK-3254,PAYLOAD,2022-11-20 02:15:08,15.08859636,0.0002535,53.2162,251.2634,26.9563,333.156,-0.00018105,-3.17e-05,0.0,0 STARLINK-3254,1 50204U 21125BA  22324.09384937 -.00003170  00000-0 -18105-3 0  9999,2 50204  53.2162 251.2634 0002535  26.9563 333.1560 15.08859636 51650,6917.82,95.436,541.439,537.932,0.0
50204.0,STARLINK-3254,PAYLOAD,2022-11-20 05:25:55,15.08838567,0.0002579,53.2164,250.6691,29.9055,330.2084,7.1501e-05,8.5e-06,0.0,0 STARLINK-3254,1 50204U 21125BA  22324.22633592  .00000850  00000-0  71501-4 0  9998,2 50204  53.2164 250.6691 0002579  29.9055 330.2084 15.08838567 51676,6917.885,95.438,541.534,537.966,0.0
50204.0,STARLINK-3254,PAYLOAD,2022-11-20 19:44:24,15.08828594,0.0002663,53.217,247.9942,30.0292,330.0852,-1.595e-05,-5.42e-06,0.0,0 STARLINK-3254,1 50204U 21125BA  22324.82250520 -.00000542  00000-0 -15950-4 0  9996,2 50204  53.2170 247.9942 0002663  30.0292 330.0852 15.08828594 54898,6917.915,95.438,541.622,537.938,0.0
50204.0,STARLINK-3254,PAYLOAD,2022-11-21 03:41:19,15.08837597,0.0002686,53.217,246.508,32.3267,327.789,6.026100000000001e-05,6.71e-06,0.0,0 STARLINK-3254,1 50204U 21125BA  22325.15369913  .00000671  00000-0  60261-4 0  9996,2 50204  53.2170 246.5080 0002686  32.3267 327.7890 15.08837597 54942,6917.888000000001,95.438,541.611,537.895,0.0
50204.0,STARLINK-3254,PAYLOAD,2022-11-21 19:35:10,15.08842724,0.0002665,53.2169,243.534,34.9511,325.1656,8.635700000000001e-05,1.086e-05,0.0,0 STARLINK-3254,1 50204U 21125BA  22325.81609379  .00001086  00000-0  86357-4 0  9997,2 50204  53.2169 243.5340 0002665  34.9511 325.1656 15.08842724 55045,6917.871999999999,95.437,541.581,537.893,0.0
50204.0,STARLINK-3254,PAYLOAD,2022-11-22 05:07:29,15.08842001,0.0002695,53.2168,241.7497,35.745,324.3722,9.1855e-05,1.174e-05,0.0,0 STARLINK-3254,1 50204U 21125BA  22326.21353428  .00001174  00000-0  91855-4 0  9990,2 50204  53.2168 241.7497 0002695  35.7450 324.3722 15.08842001 51972,6917.874,95.437,541.604,537.875,0.0
50204.0,STARLINK-3254,PAYLOAD,2022-11-23 03:22:54,15.08827453,0.0002677,53.2164,237.5852,33.705,326.4112,-4.815300000000001e-05,-1.055e-05,0.0,0 STARLINK-3254,1 50204U 21125BA  22327.14090653 -.00001055  00000-0 -48153-4 0  9994,2 50204  53.2164 237.5852 0002677  33.7050 326.4112 15.08827453 52117,6917.919,95.438,541.636,537.932,0.0
50204.0,STARLINK-3254,PAYLOAD,2022-11-23 11:19:51,15.08819426,0.000274,53.2162,236.0986,32.3941,327.7219,-0.00015106,-2.691e-05,0.0,0 STARLINK-3254,1 50204U 21125BA  22327.47211830 -.00002691  00000-0 -15106-3 0  9990,2 50204  53.2162 236.0986 0002740  32.3941 327.7219 15.08819426 52160,6917.943,95.439,541.7040000000002,537.913,0.0
50204.0,STARLINK-3254,PAYLOAD,2022-11-24 03:13:41,15.08838602,0.0002625,53.2163,233.1248,34.6356,325.4807,4.2718e-05,3.91e-06,0.0,0 STARLINK-3254,1 50204U 21125BA  22328.13450516  .00000391  00000-0  42718-4 0  9993,2 50204  53.2163 233.1248 0002625  34.6356 325.4807 15.08838602 52263,6917.885,95.438,541.566,537.934,0.0
50204.0,STARLINK-3254,PAYLOAD,2022-11-24 11:10:36,15.0884013,0.0002609,53.2162,231.6383,35.3722,324.7443,3.9733e-05,3.44e-06,0.0,0 STARLINK-3254,1 50204U 21125BA  22328.46570512  .00000344  00000-0  39733-4 0  9999,2 50204  53.2162 231.6383 0002609  35.3722 324.7443 15.08840130 55442,6917.88,95.438,541.55,537.94,0.0
50204.0,STARLINK-3254,PAYLOAD,2022-11-24 22:18:18,15.08840545,0.0002698,53.2161,229.5573,35.2374,324.8796,0.00024564,3.623e-05,0.0,0 STARLINK-3254,1 50204U 21125BA  22328.92937734  .00003623  00000-0  24564-3 0  9991,2 50204  53.2161 229.5573 0002698  35.2374 324.8796 15.08840545 52380,6917.879,95.438,541.61,537.877,0.0
50204.0,STARLINK-3254,PAYLOAD,2022-11-25 03:04:27,15.08844244,0.0002583999999999,53.2159,228.6651,36.8126,323.3043,0.00030626,4.59e-05,0.0,0 STARLINK-3254,1 50204U 21125BA  22329.12809766  .00004590  00000-0  30626-3 0  9997,2 50204  53.2159 228.6651 0002584  36.8126 323.3043 15.08844244 55540,6917.8669999999975,95.437,541.52,537.945,0.0
50204.0,STARLINK-3254,PAYLOAD,2022-11-25 23:44:28,15.08851327,0.0002694,53.2156,224.799,36.6048,323.5127,0.00017624,2.518e-05,0.0,0 STARLINK-3254,1 50204U 21125BA  22329.98921905  .00002518  00000-0  17624-3 0  9992,2 50204  53.2156 224.7990 0002694  36.6048 323.5127 15.08851327 52545,6917.846,95.437,541.5740000000002,537.847,0.0
50204.0,STARLINK-3254,PAYLOAD,2022-11-26 17:13:42,15.08852265,0.0002634,53.215,221.5274,35.3842,324.7325,0.00021665,3.162e-05,0.0,0 STARLINK-3254,1 50204U 21125BA  22330.71785292  .00003162  00000-0  21665-3 0  9998,2 50204  53.2150 221.5274 0002634  35.3842 324.7325 15.08852265 55785,6917.843000000003,95.437,541.53,537.886,0.0
50204.0,STARLINK-3254,PAYLOAD,2022-11-27 04:21:24,15.08850643,0.0002719,53.2154,219.446,35.7329,324.3845,2.5452e-05,1.17e-06,0.0,0 STARLINK-3254,1 50204U 21125BA  22331.18153140  .00000117  00000-0  25452-4 0  9997,2 50204  53.2154 219.4460 0002719  35.7329 324.3845 15.08850643 52722,6917.848000000001,95.437,541.594,537.832,0.0
50204.0,STARLINK-3254,PAYLOAD,2022-11-27 17:04:29,15.088347,0.0002784,53.2153,217.0671,35.8676,324.2502,-0.0001786,-3.13e-05,0.0,0 STARLINK-3254,1 50204U 21125BA  22331.71145665 -.00003130  00000-0 -17860-3 0  9992,2 50204  53.2153 217.0671 0002784  35.8676 324.2502 15.08834700 55938,6917.897,95.438,541.688,537.836,0.0
50204.0,STARLINK-3254,PAYLOAD,2022-11-27 23:26:02,15.08840902,0.0002771,53.2155,215.8779,37.0746,323.0437,6.8987e-06,-1.79e-06,0.0,0 STARLINK-3254,1 50204U 21125BA  22331.97641550 -.00000179  00000-0  68987-5 0  9991,2 50204  53.2155 215.8779 0002771  37.0746 323.0437 15.08840902 52845,6917.878000000002,95.437,541.66,537.826,0.0
50204.0,STARLINK-3254,PAYLOAD,2022-11-28 08:58:21,15.08841051,0.0002795,53.2153,214.0937,37.1857,322.9328,4.4664e-05,4.22e-06,0.0,0 STARLINK-3254,1 50204U 21125BA  22332.37385448  .00000422  00000-0  44664-4 0  9992,2 50204  53.2153 214.0937 0002795  37.1857 322.9328 15.08841051 56038,6917.877,95.437,541.6759999999998,537.809,0.0
50204.0,STARLINK-3254,PAYLOAD,2022-11-29 02:27:35,15.08841477,0.0002735,53.215,210.8227,36.1868,323.9308,-0.00021956,-3.782e-05,0.0,0 STARLINK-3254,1 50204U 21125BA  22333.10249365 -.00003782  00000-0 -21956-3 0  9993,2 50204  53.2150 210.8227 0002735  36.1868 323.9308 15.08841477 53012,6917.876,95.437,541.633,537.849,0.0
50204.0,STARLINK-3254,PAYLOAD,2022-11-29 18:21:27,15.08835994,0.0002711,53.2149,207.849,35.897,324.2204,4.4813e-05,4.25e-06,0.0,0 STARLINK-3254,1 50204U 21125BA  22333.76489933  .00000425  00000-0  44813-4 0  9999,2 50204  53.2149 207.8490 0002711  35.8970 324.2204 15.08835994 56246,6917.893,95.438,541.633,537.882,0.0
50204.0,STARLINK-3254,PAYLOAD,2022-11-30 00:43:00,15.08829811,0.0002707,53.2159,206.6594,35.9076,324.2097,2.8608e-05,1.67e-06,0.0,0 STARLINK-3254,1 50204U 21125BA  22334.02986835  .00000167  00000-0  28608-4 0  9999,2 50204  53.2159 206.6594 0002707  35.9076 324.2097 15.08829811 53150,6917.9119999999975,95.438,541.649,537.904,0.0
50204.0,STARLINK-3254,PAYLOAD,2022-11-30 08:39:56,15.08834685,0.0002717,53.2158,205.1726,36.1503,323.9673,3.0424e-05,1.96e-06,0.0,0 STARLINK-3254,1 50204U 21125BA  22334.36106623  .00000196  00000-0  30424-4 0  9996,2 50204  53.2158 205.1726 0002717  36.1503 323.9673 15.08834685 56333,6917.897,95.438,541.641,537.882,0.0
50204.0,STARLINK-3254,PAYLOAD,2022-11-30 16:36:51,15.08840402,0.0002699,53.2158,203.6856,36.2295,323.8879,7.963399999999999e-05,9.79e-06,0.0,0 STARLINK-3254,1 50204U 21125BA  22334.69226178  .00000979  00000-0  79634-4 0  9995,2 50204  53.2158 203.6856 0002699  36.2295 323.8879 15.08840402 53257,6917.879,95.438,541.611,537.877,0.0
50204.0,STARLINK-3254,PAYLOAD,2022-12-01 00:33:46,15.08843781,0.0002755,53.2159,202.1989,36.8828,323.2353,0.00016224,2.295e-05,0.0,0 STARLINK-3254,1 50204U 21125BA  22335.02345777  .00002295  00000-0  16224-3 0  9998,2 50204  53.2159 202.1989 0002755  36.8828 323.2353 15.08843781 56437,6917.869000000002,95.437,541.64,537.828,0.0
50204.0,STARLINK-3254,PAYLOAD,2022-12-01 21:13:47,15.08837564,0.0002646,53.2156,198.3333,36.6846,323.4327,0.0001517,2.127e-05,0.0,0 STARLINK-3254,1 50204U 21125BA  22335.88458333  .00002127  00000-0  15170-3 0  9998,2 50204  53.2156 198.3333 0002646  36.6846 323.4327 15.08837564 53432,6917.888000000001,95.438,541.5830000000002,537.922,0.0
50204.0,STARLINK-3254,PAYLOAD,2022-12-02 08:21:30,15.08836391,0.0003113,53.2146,196.2547,36.1393,323.9809,0.0001025,1.343e-05,0.0,0 STARLINK-3254,1 50204U 21125BA  22336.34826740  .00001343  00000-0  10250-3 0  9994,2 50204  53.2146 196.2547 0003113  36.1393 323.9809 15.08836391 56639,6917.891,95.438,541.91,537.6030000000002,0.0
50204.0,STARLINK-3254,PAYLOAD,2022-12-02 17:53:49,15.08834707,0.0002852,53.2165,194.4692,35.2131,324.9049,-2.3728e-05,-6.66e-06,0.0,0 STARLINK-3254,1 50204U 21125BA  22336.74570814 -.00000666  00000-0 -23728-4 0  9990,2 50204  53.2165 194.4692 0002852  35.2131 324.9049 15.08834707 53565,6917.897,95.438,541.735,537.789,0.0
50204.0,STARLINK-3254,PAYLOAD,2022-12-03 08:12:17,15.08840766,0.0002753,53.2155,191.7904,38.438,321.6808,3.8213e-05,3.2e-06,0.0,0 STARLINK-3254,1 50204U 21125BA  22337.34186610  .00000320  00000-0  38213-4 0  9994,2 50204  53.2155 191.7904 0002753  38.4380 321.6808 15.08840766 56787,6917.878000000002,95.438,541.648,537.839,0.0
50204.0,STARLINK-3254,PAYLOAD,2022-12-03 20:55:22,15.08844963,0.0002815,53.2145,189.411,40.9027,319.2176,6.949899999999999e-05,8.18e-06,0.0,0 STARLINK-3254,1 50204U 21125BA  22337.87178244  .00000818  00000-0  69499-4 0  9998,2 50204  53.2145 189.4110 0002815  40.9027 319.2176 15.08844963 53730,6917.865,95.437,541.678,537.783,0.0
